SAOCOM 1A               
1 43641U 18076A   26086.85334031  .00000148  00000+0  25123-4 0  9998
2 43641  97.8907 274.7696 0001442  84.2986 275.8391 14.82158281404057
H-2A R/B                
1 43682U 18084L   26086.58112162  .00019369  00000+0  45051-3 0  9997
2 43682  98.8713 307.8013 0023874 323.0369  36.9227 15.42089529408537
SAOCOM 1B               
1 46265U 20059A   26086.81706432  .00001136  00000+0  14917-3 0  9997
2 46265  97.8908 273.8317 0001538  87.7110 272.4279 14.82157176301434
CSS (TIANHE)            
1 48274U 21035A   26086.81975154  .00016258  00000+0  18751-3 0  9994
2 48274  41.4669  97.7682 0004161  40.1011 320.0134 15.61560654280445
COSMOS 2550             
1 48865U 21056A   26086.64503001 -.00000186  00000+0  16210-6 0  9997
2 48865  67.1425 346.5698 0008393 268.9304  91.0889 15.33839474266213
CZ-2C R/B               
1 52794U 22058K   26086.57098214  .00037365  00000+0  52000-3 0  9995
2 52794  50.1873 226.2169 0041515 277.4037  82.2218 15.55520683212915
CZ-2C R/B               
1 54039U 22132E   26086.74984413  .00048974  00000+0  52390-3 0  9996
2 54039  97.2963  90.6381 0017924  32.5235 327.7124 15.63535904193199
GSLV R/B                
1 54149U 22138AN  26086.70424744  .00002046  00000+0  17484-3 0  9991
2 54149  87.3863 160.3320 0024055  87.3973 273.0012 14.96886692186625
XRISM                   
1 57800U 23137A   26086.60149458  .00005757  00000+0  32405-3 0  9995
2 57800  31.0015 167.7898 0007957 219.7178 140.2878 15.11700228140508
ACS3                    
1 59588U 24077B   26086.78157360  .00025469  00000+0  20039-1 0  9994
2 59588  97.1971  23.8266 0072212  35.1438 325.4459 13.90428183 96710
SZ-21 MODULE            
1 66515U 25246C   26086.70196654  .00037039  00000+0  30140-3 0  9994
2 66515  41.4743  92.3645 0001454 209.3733 150.7028 15.69915920 20909
